NORAD_CAT_ID,OBJECT_NAME,OBJECT_TYPE,EPOCH,MEAN_MOTION,ECCENTRICITY,INCLINATION,RA_OF_ASC_NODE,ARG_OF_PERICENTER,MEAN_ANOMALY,BSTAR,MEAN_MOTION_DOT,MEAN_MOTION_DDOT,TLE_LINE0,TLE_LINE1,TLE_LINE2,SEMIMAJOR_AXIS,PERIOD,APOGEE,PERIGEE,DECAYED
52675.0,STARLINK-3934,PAYLOAD,2023-07-29 17:02:23,15.08842698,0.0001253,53.2166,106.704,78.4879,281.6254,0.00023845,3.509e-05,0.0,0 STARLINK-3934,1 52675U 22053V   23210.70999568  .00003509  00000-0  23845-3 0  9990,2 52675  53.2166 106.7040 0001253  78.4879 281.6254 15.08842698 66722,6917.872,95.437,540.604,538.87,0.0
52675.0,STARLINK-3934,PAYLOAD,2023-07-30 02:34:41,15.08854499,0.0001221,53.2168,104.9193,82.876,277.2371,0.00037306,5.657e-05,0.0,0 STARLINK-3934,1 52675U 22053V   23211.10742950  .00005657  00000-0  37306-3 0  9999,2 52675  53.2168 104.9193 0001221  82.8760 277.2371 15.08854499 66785,6917.836,95.437,540.546,538.856,0.0
52675.0,STARLINK-3934,PAYLOAD,2023-07-30 23:14:43,15.08844063,0.0001351,53.216,101.0552,74.0063,286.1078,-1.8289e-06,-3.17e-06,0.0,0 STARLINK-3934,1 52675U 22053V   23211.96855480 -.00000317  00000-0 -18289-5 0  9997,2 52675  53.2160 101.0552 0001351  74.0063 286.1078 15.08844063 66911,6917.868,95.437,540.668,538.798,0.0
52675.0,STARLINK-3934,PAYLOAD,2023-08-01 16:34:45,15.08837981,0.0001396,53.2175,93.3249,84.1391,275.976,9.487e-05,1.222e-05,0.0,0 STARLINK-3934,1 52675U 22053V   23213.69079962  .00001222  00000-0  94870-4 0  9995,2 52675  53.2175  93.3249 0001396  84.1391 275.9760 15.08837981 67172,6917.887,95.438,540.717,538.786,0.0
52675.0,STARLINK-3934,PAYLOAD,2023-08-03 01:57:50,15.08845599,0.0001366,53.218,87.0782,98.3947,261.72,0.00012583,1.716e-05,0.0,0 STARLINK-3934,1 52675U 22053V   23215.08183498  .00001716  00000-0  12583-3 0  9998,2 52675  53.2180  87.0782 0001366  98.3947 261.7200 15.08845599 67380,6917.863,95.437,540.673,538.783,0.0
52675.0,STARLINK-3934,PAYLOAD,2023-08-04 01:48:37,15.08841145,0.0001117,53.2165,82.6162,89.9731,270.139,8.354e-05,1.042e-05,0.0,0 STARLINK-3934,1 52675U 22053V   23216.07543942  .00001042  00000-0  83540-4 0  9996,2 52675  53.2165  82.6162 0001117  89.9731 270.1390 15.08841145 67531,6917.877,95.437,540.515,538.969,0.0
52675.0,STARLINK-3934,PAYLOAD,2023-08-04 14:31:43,15.0883843,0.0001263,53.2169,80.2387,90.6072,269.5065,0.00011669,1.57e-05,0.0,0 STARLINK-3934,1 52675U 22053V   23216.60536448  .00001570  00000-0  11669-3 0  9996,2 52675  53.2169  80.2387 0001263  90.6072 269.5065 15.08838430 67610,6917.885,95.438,540.624,538.876,0.0
52675.0,STARLINK-3934,PAYLOAD,2023-08-05 00:04:02,15.08849078,0.0001346,53.2163,78.4545,107.2712,252.8428,0.00039447,5.997e-05,0.0,0 STARLINK-3934,1 52675U 22053V   23217.00280123  .00005997  00000-0  39447-3 0  9998,2 52675  53.2163  78.4545 0001346 107.2712 252.8428 15.08849078 67671,6917.853,95.437,540.649,538.786,0.0
52675.0,STARLINK-3934,PAYLOAD,2023-08-05 19:08:39,15.08843309,0.0001316,53.2148,74.8864,77.205,282.9089,0.00017119,2.438e-05,0.0,0 STARLINK-3934,1 52675U 22053V   23217.79768407  .00002438  00000-0  17119-3 0  9999,2 52675  53.2148  74.8864 0001316  77.2050 282.9089 15.08843309 67797,6917.87,95.437,540.646,538.825,0.0
52675.0,STARLINK-3934,PAYLOAD,2023-08-06 07:51:45,15.08838684,0.0001418,53.2161,72.509,72.6996,287.4152,7.1687e-05,8.53e-06,0.0,0 STARLINK-3934,1 52675U 22053V   23218.32760571  .00000853  00000-0  71687-4 0  9993,2 52675  53.2161  72.5090 0001418  72.6996 287.4152 15.08838684 67879,6917.884,95.438,540.73,538.768,0.0
52675.0,STARLINK-3934,PAYLOAD,2023-08-06 23:45:37,15.0882969,0.0001274,53.2176,69.5307,114.3777,245.7348,-5.6128e-05,-1.181e-05,0.0,0 STARLINK-3934,1 52675U 22053V   23218.99001350 -.00001181  00000-0 -56128-4 0  9999,2 52675  53.2176  69.5307 0001274 114.3777 245.7348 15.08829690 67975,6917.912,95.438,540.658,538.896,0.0
52675.0,STARLINK-3934,PAYLOAD,2023-08-07 20:25:36,15.08852563,0.0001162,53.2182,65.6664,102.1135,257.9987,0.00011605,1.56e-05,0.0,0 STARLINK-3934,1 52675U 22053V   23219.85112134  .00001560  00000-0  11605-3 0  9997,2 52675  53.2182  65.6664 0001162 102.1135 257.9987 15.08852563 68109,6917.842,95.437,540.511,538.903,0.0
52675.0,STARLINK-3934,PAYLOAD,2023-08-08 13:54:52,15.08843261,0.0001347,53.2183,62.3936,102.1784,257.9359,0.00032822,4.94e-05,0.0,0 STARLINK-3934,1 52675U 22053V   23220.57977056  .00004940  00000-0  32822-3 0  9999,2 52675  53.2183  62.3936 0001347 102.1784 257.9359 15.08843261 68211,6917.87,95.437,540.667,538.804,0.0
52675.0,STARLINK-3934,PAYLOAD,2023-08-09 05:48:43,15.08840454,0.0001748,53.2173,59.4209,59.8341,300.2824,6.8879e-05,8.08e-06,0.0,0 STARLINK-3934,1 52675U 22053V   23221.24217253  .00000808  00000-0  68879-4 0  9991,2 52675  53.2173  59.4209 0001748  59.8341 300.2824 15.08840454 68313,6917.879,95.438,540.953,538.535,0.0
52675.0,STARLINK-3934,PAYLOAD,2023-08-10 23:08:44,15.08844032,9.51e-05,53.2175,51.6898,82.8576,277.2524,8.0166e-05,9.88e-06,0.0,0 STARLINK-3934,1 52675U 22053V   23222.96440695  .00000988  00000-0  80166-4 0  9991,2 52675  53.2175  51.6898 0000951  82.8576 277.2524 15.08844032 68578,6917.868,95.437,540.391,539.075,0.0
52675.0,STARLINK-3934,PAYLOAD,2023-08-11 05:30:17,15.08837551,0.0001042,53.2178,50.5002,80.7171,279.3939,0.0001211,1.64e-05,0.0,0 STARLINK-3934,1 52675U 22053V   23223.22937151  .00001640  00000-0  12110-3 0  9998,2 52675  53.2178  50.5002 0001042  80.7171 279.3939 15.08837551 68612,6917.888,95.438,540.474,539.032,0.0
52675.0,STARLINK-3934,PAYLOAD,2023-08-12 11:42:37,15.08839833,8.95e-05,53.2156,44.8509,81.4467,278.6627,0.00014501,2.021e-05,0.0,0 STARLINK-3934,1 52675U 22053V   23224.48793235  .00002021  00000-0  14501-3 0  9990,2 52675  53.2156  44.8509 0000895  81.4467 278.6627 15.08839833 68809,6917.881,95.438,540.365,539.127,0.0
52675.0,STARLINK-3934,PAYLOAD,2023-08-12 22:50:18,15.08850138,7.91e-05,53.217,42.773,89.95,270.1583,0.00026775,3.977e-05,0.0,0 STARLINK-3934,1 52675U 22053V   23224.95160631  .00003977  00000-0  26775-3 0  9997,2 52675  53.2170  42.7730 0000791  89.9500 270.1583 15.08850138 68870,6917.849,95.437,540.262,539.167,0.0
52675.0,STARLINK-3934,PAYLOAD,2023-08-13 05:11:51,15.08838381,0.0001048,53.2178,41.5794,80.8854,279.2257,2.9108e-05,1.75e-06,0.0,0 STARLINK-3934,1 52675U 22053V   23225.21657184  .00000175  00000-0  29108-4 0  9992,2 52675  53.2178  41.5794 0001048  80.8854 279.2257 15.08838381 68912,6917.885,95.438,540.475,539.025,0.0
52675.0,STARLINK-3934,PAYLOAD,2023-08-14 17:45:44,15.08842019,7.29e-05,53.2175,34.7386,97.7102,262.3973,0.00022063,3.226e-05,0.0,0 STARLINK-3934,1 52675U 22053V   23226.74009320  .00003226  00000-0  22063-3 0  9996,2 52675  53.2175  34.7386 0000729  97.7102 262.3973 15.08842019 69145,6917.874,95.437,540.244,539.235,0.0
52675.0,STARLINK-3934,PAYLOAD,2023-08-15 22:22:40,15.08849472,0.0001248,53.2171,29.3868,92.256,267.8575,0.00024271,3.578e-05,0.0,0 STARLINK-3934,1 52675U 22053V   23227.93240985  .00003578  00000-0  24271-3 0  9995,2 52675  53.2171  29.3868 0001248  92.2560 267.8575 15.08849472 69329,6917.851,95.437,540.58,538.853,0.0
52675.0,STARLINK-3934,PAYLOAD,2023-08-16 17:27:18,15.08840652,0.000136,53.2155,25.8195,90.34,269.7748,6.4072e-05,7.32e-06,0.0,0 STARLINK-3934,1 52675U 22053V   23228.72729263  .00000732  00000-0  64072-4 0  9997,2 52675  53.2155  25.8195 0001360  90.3400 269.7748 15.08840652 69449,6917.878,95.438,540.684,538.803,0.0
52675.0,STARLINK-3934,PAYLOAD,2023-08-17 10:56:32,15.08832307,0.0001025,53.2162,22.5482,115.0667,245.0432,-0.00010087,-1.892e-05,0.0,0 STARLINK-3934,1 52675U 22053V   23229.45593552 -.00001892  00000-0 -10087-3 0  9994,2 52675  53.2162  22.5482 0001025 115.0667 245.0432 15.08832307 69555,6917.904,95.438,540.478,539.06,0.0
52675.0,STARLINK-3934,PAYLOAD,2023-08-17 17:18:04,15.08847859,0.0001303,53.2168,21.3588,95.666,264.448,0.00010655,1.409e-05,0.0,0 STARLINK-3934,1 52675U 22053V   23229.72088862  .00001409  00000-0  10655-3 0  9990,2 52675  53.2168  21.3588 0001303  95.6660 264.4480 15.08847859 69590,6917.856,95.437,540.623,538.82,0.0
52675.0,STARLINK-3934,PAYLOAD,2023-08-18 02:50:24,15.08831047,0.0002088,53.2158,19.5744,84.2616,275.8615,-5.438e-05,-1.153e-05,0.0,0 STARLINK-3934,1 52675U 22053V   23230.11833854 -.00001153  00000-0 -54380-4 0  9996,2 52675  53.2158  19.5744 0002088  84.2616 275.8615 15.08831047 69653,6917.908,95.438,541.217,538.328,0.0
52675.0,STARLINK-3934,PAYLOAD,2023-08-18 17:08:52,15.08842429,0.0001261,53.2169,16.8995,83.3493,276.7643,-4.8967e-05,-1.067e-05,0.0,0 STARLINK-3934,1 52675U 22053V   23230.71449348 -.00001067  00000-0 -48967-4 0  9991,2 52675  53.2169  16.8995 0001261  83.3493 276.7643 15.08842429 69745,6917.873,95.437,540.61,538.866,0.0
52675.0,STARLINK-3934,PAYLOAD,2023-08-19 18:35:02,15.08841163,0.0001142,53.2185,12.1435,84.7384,275.3739,9.321e-05,1.196e-05,0.0,0 STARLINK-3934,1 52675U 22053V   23231.77433915  .00001196  00000-0  93210-4 0  9993,2 52675  53.2185  12.1435 0001142  84.7384 275.3739 15.08841163 69906,6917.877,95.437,540.532,538.952,0.0
52675.0,STARLINK-3934,PAYLOAD,2023-08-20 08:53:32,15.08827235,0.0001284,53.2185,9.4674,83.9332,276.1806,0.00066482,0.00010305,0.0,0 STARLINK-3934,1 52675U 22053V   23232.37051160  .00010305  00000-0  66482-3 0  9990,2 52675  53.2185   9.4674 0001284  83.9332 276.1806 15.08827235 69998,6917.919,95.438,540.673,538.896,0.0
52675.0,STARLINK-3934,PAYLOAD,2023-08-20 16:50:26,15.08847601,0.0001253,53.218,7.9795,80.6354,279.478,0.00030313,4.541e-05,0.0,0 STARLINK-3934,1 52675U 22053V   23232.70169899  .00004541  00000-0  30313-3 0  9995,2 52675  53.2180   7.9795 0001253  80.6354 279.4780 15.08847601 70048,6917.857,95.437,540.589,538.855,0.0
52675.0,STARLINK-3934,PAYLOAD,2023-08-21 02:22:45,15.08841943,0.0001609,53.2184,6.1964,80.733,279.3844,0.0001921,2.771e-05,0.0,0 STARLINK-3934,1 52675U 22053V   23233.09914257  .00002771  00000-0  19210-3 0  9990,2 52675  53.2184   6.1964 0001609  80.7330 279.3844 15.08841943 70101,6917.874,95.437,540.853,538.626,0.0
